[{"OBJECT_NAME":"STARLINK-35018","OBJECT_ID":"2025-184R","EPOCH":"2026-03-09T16:45:02.727072","MEAN_MOTION":15.05656306,"ECCENTRICITY":0.00014479,"INCLINATION":97.6039,"RA_OF_ASC_NODE":122.6932,"ARG_OF_PERICENTER":84.7291,"MEAN_ANOMALY":275.4101,"EPHEMERIS_TYPE":0,"CLASSIFICATION_TYPE":"U","NORAD_CAT_ID":65288,"ELEMENT_SET_NO":999,"REV_AT_EPOCH":3130,"BSTAR":0.00048497413,"MEAN_MOTION_DOT":6.945e-5,"MEAN_MOTION_DDOT":0},{"OBJECT_NAME":"CZ-4B DEB","OBJECT_ID":"2017-034F","EPOCH":"2026-03-09T21:40:50.869920","MEAN_MOTION":14.94203356,"ECCENTRICITY":0.01269894,"INCLINATION":42.9918,"RA_OF_ASC_NODE":268.1665,"ARG_OF_PERICENTER":296.9238,"MEAN_ANOMALY":61.8675,"EPHEMERIS_TYPE":0,"CLASSIFICATION_TYPE":"U","NORAD_CAT_ID":43430,"ELEMENT_SET_NO":999,"REV_AT_EPOCH":46152,"BSTAR":0.00088597773,"MEAN_MOTION_DOT":0.00011118,"MEAN_MOTION_DDOT":0}]
